sat04871
1 04871U 70025FB  20046.81201446  .00002598  00000-0  29748-3 0  9999
2 04871  99.7138 356.7149 0016039  75.1215 285.1770 14.87087390358625
